OBJECT_NAME,OBJECT_ID,EPOCH,MEAN_MOTION,ECCENTRICITY,INCLINATION,RA_OF_ASC_NODE,ARG_OF_PERICENTER,MEAN_ANOMALY,EPHEMERIS_TYPE,CLASSIFICATION_TYPE,NORAD_CAT_ID,ELEMENT_SET_NO,REV_AT_EPOCH,BSTAR,MEAN_MOTION_DOT,MEAN_MOTION_DDOT
COSMOS 2058,1990-010A,2026-06-03T23:10:20.174592,15.11924891,.00106848,82.4665,322.3957,43.2506,316.9562,0,U,20465,999,95527,.18661784E-3,.3229E-4,0
SL-14 R/B,1990-010B,2026-06-04T03:37:55.330176,14.83637968,.00202334,82.5020,186.1872,19.4269,340.7713,0,U,20466,999,94130,.47938645E-4,.421E-5,0
SL-14 R/B,1990-018B,2026-06-04T01:11:39.863616,14.82207440,.00165954,82.5200,142.3872,162.6490,197.5296,0,U,20511,999,93537,.52657933E-4,.444E-5,0
HST,1990-037B,2026-06-02T08:13:52.267584,15.30586461,.00017007,28.4711,182.0162,354.7953,5.2625,0,U,20580,999,78629,.18209235E-3,.5773E-4,0
SL-16 R/B,1990-046B,2026-06-04T05:22:09.638688,14.15019270,.00142608,70.9975,116.1736,181.5109,178.5973,0,U,20625,999,86063,.98500235E-4,.143E-5,0
COSMOS 2084,1990-055A,2026-06-04T01:09:10.249056,15.06060518,.00056203,62.7909,40.9352,255.1473,104.9006,0,U,20663,999,94932,.18030986E-3,.2445E-4,0
SL-6 R/B(2),1990-055D,2026-06-04T17:58:34.835520,15.03960039,.00386282,62.7841,317.7005,3.4064,356.7291,0,U,20666,999,95128,.16171773E-3,.2072E-4,0
SL-8 R/B,1990-078B,2026-06-04T02:49:57.926784,14.91836998,.03533827,82.9008,173.4473,82.4230,281.6975,0,U,20775,999,82217,.49078535E-3,.17413E-3,0
SL-8 R/B,1991-006B,2026-06-04T06:56:56.001984,13.77505021,.00230441,82.9416,105.6282,149.1389,322.4100,0,U,21088,999,77599,.3424848E-4,.5E-6,0
OKEAN-3,1991-039A,2026-06-04T15:23:49.958880,15.05272488,.00146806,82.5172,252.5466,40.4858,319.7458,0,U,21397,999,87811,.19540347E-3,.2826E-4,0
COSMOS 2151,1991-042A,2026-06-04T20:31:55.060032,15.00403537,.00135937,82.4963,359.5828,120.9958,239.2603,0,U,21422,999,87626,.14813987E-3,.1891E-4,0
SL-14 R/B,1991-042B,2026-06-04T01:17:07.096704,14.81893799,.00159767,82.4916,139.2120,321.7540,38.2540,0,U,21423,999,86586,.55391057E-4,.462E-5,0
ERS-1,1991-050A,2026-06-04T15:40:56.993952,14.39509242,.00308818,98.7801,176.0450,305.5483,54.2825,0,U,21574,999,82824,.10852077E-3,.293E-5,0
ARIANE 40 R/B,1991-050F,2026-06-04T15:16:47.103456,14.42949619,.00036692,98.1881,204.5416,149.7406,210.3997,0,U,21610,999,83153,.12205715E-3,.367E-5,0
INTERCOSMOS 25,1991-086A,2026-06-04T17:33:41.680224,12.12180426,.14845099,82.6054,257.3467,289.2854,55.3793,0,U,21819,999,50723,.18896802E-3,.95E-5,0
SL-8 R/B,1992-008B,2026-06-04T16:53:39.126048,13.75973689,.00332702,82.9271,203.0686,250.6914,233.0217,0,U,21876,999,72138,.24021098E-4,.38E-6,0
SL-8 R/B,1992-020B,2026-06-04T18:16:34.805280,13.75547674,.00303661,82.9302,89.0861,56.1907,6.8694,0,U,21938,999,71310,.58265216E-4,.72E-6,0
USA 81,1992-023A,2026-06-04T05:04:52.214880,14.32394529,.00027332,85.0075,81.4954,96.8615,263.2888,0,U,21949,999,10717,.74851275E-4,.222E-5,0
COSMOS 2219,1992-076A,2026-06-04T05:53:41.203392,14.14095941,.00159908,71.0583,197.1268,65.3375,294.9411,0,U,22219,999,73061,-.55897891E-4,-.154E-5,0
SL-16 R/B,1992-076B,2026-06-04T17:56:34.736928,14.16872818,.00143091,71.0011,4.9868,315.0899,116.1019,0,U,22220,999,73416,-.32487029E-4,-.113E-5,0
COSMOS 2221,1992-080A,2026-06-04T04:01:09.410592,14.96500298,.00125825,82.5038,196.2380,260.5069,99.4731,0,U,22236,999,79372,.14571993E-3,.1683E-4,0
SL-16 R/B,1992-093B,2026-06-04T05:44:33.469728,14.15464769,.00046616,71.0204,182.5726,204.9801,155.1097,0,U,22285,999,72540,.54133966E-4,.58E-6,0
COSMOS 2228,1992-094A,2026-06-04T20:38:43.540224,14.97540199,.00181377,82.5167,153.8502,14.4345,345.7392,0,U,22286,999,78910,.21555703E-3,.2548E-4,0
SL-16 R/B,1993-016B,2026-06-04T15:24:30.400128,14.15308590,.00110133,71.0082,32.5573,201.9904,158.0748,0,U,22566,999,71447,-.1444697E-4,-.76E-6,0
COSMOS 2242,1993-024A,2026-06-04T03:29:39.706944,14.96864609,.0016617,82.5183,184.0195,20.4483,339.7401,0,U,22626,999,79332,.16628814E-3,.1937E-4,0
SL-16 R/B,1993-059B,2026-06-04T05:17:56.391648,14.17243330,.00148832,70.9886,188.6478,76.5987,283.6795,0,U,22803,999,69179,-.15395239E-4,-.79E-6,0
ARIANE 40 R/B,1993-061H,2026-06-04T15:16:16.830624,14.32902524,.00112417,98.4821,222.7536,32.9909,327.1975,0,U,22830,999,70655,.11095305E-3,.26E-5,0
COSMOS 2278,1994-023A,2026-06-04T17:29:43.129824,14.14390159,.00106312,71.0540,352.9928,256.5016,103.4922,0,U,23087,999,65711,.2254266E-3,.385E-5,0
SL-16 R/B,1994-023B,2026-06-04T15:58:26.431680,14.15018330,.00035624,70.9998,248.2277,201.2318,158.8658,0,U,23088,999,65839,.42555805E-4,.35E-6,0
SL-16 R/B,1994-074B,2026-06-04T02:17:07.585152,14.79490956,.00053312,97.6996,182.3613,308.1191,117.6539,0,U,23343,999,70002,.77460097E-4,.53E-5,0
