COSMOS 2058             
1 20465U 90010A   26154.96551128  .00003229  00000+0  18662-3 0  9993
2 20465  82.4665 322.3957 0010684  43.2506 316.9562 15.11924891955271
SL-14 R/B               
1 20466U 90010B   26155.15133484  .00000421  00000+0  47939-4 0  9998
2 20466  82.5020 186.1872 0020233  19.4269 340.7713 14.83637968941308
SL-14 R/B               
1 20511U 90018B   26155.04976694  .00000444  00000+0  52658-4 0  9992
2 20511  82.5200 142.3872 0016595 162.6490 197.5296 14.82207440935377
HST                     
1 20580U 90037B   26153.34296606  .00005773  00000+0  18209-3 0  9991
2 20580  28.4711 182.0162 0001700 354.7953   5.2625 15.30586461786295
SL-16 R/B               
1 20625U 90046B   26155.22372267  .00000143  00000+0  98500-4 0  9997
2 20625  70.9975 116.1736 0014260 181.5109 178.5973 14.15019270860630
COSMOS 2084             
1 20663U 90055A   26155.04803529  .00002445  00000+0  18031-3 0  9996
2 20663  62.7909  40.9352 0005620 255.1473 104.9006 15.06060518949324
SL-6 R/B(2)             
1 20666U 90055D   26155.74901430  .00002072  00000+0  16172-3 0  9996
2 20666  62.7841 317.7005 0038628   3.4064 356.7291 15.03960039951281
SL-8 R/B                
1 20775U 90078B   26155.11803156  .00017413  00000+0  49079-3 0  9996
2 20775  82.9008 173.4473 0353382  82.4230 281.6975 14.91836998822178
SL-8 R/B                
1 21088U 91006B   26155.28953706  .00000050  00000+0  34248-4 0  9993
2 21088  82.9416 105.6282 0023044 149.1389 322.4100 13.77505021775993
OKEAN-3                 
1 21397U 91039A   26155.64155045  .00002826  00000+0  19540-3 0  9992
2 21397  82.5172 252.5466 0014680  40.4858 319.7458 15.05272488878111
COSMOS 2151             
1 21422U 91042A   26155.85549838  .00001891  00000+0  14814-3 0  9995
2 21422  82.4963 359.5828 0013593 120.9958 239.2603 15.00403537876262
SL-14 R/B               
1 21423U 91042B   26155.05355436  .00000462  00000+0  55391-4 0  9996
2 21423  82.4916 139.2120 0015976 321.7540  38.2540 14.81893799865866
ERS-1                   
1 21574U 91050A   26155.65343743  .00000293  00000+0  10852-3 0  9990
2 21574  98.7801 176.0450 0030881 305.5483  54.2825 14.39509242828244
ARIANE 40 R/B           
1 21610U 91050F   26155.63665629  .00000367  00000+0  12206-3 0  9996
2 21610  98.1881 204.5416 0003669 149.7406 210.3997 14.42949619831534
INTERCOSMOS 25          
1 21819U 91086A   26155.73173241  .00000950  00000+0  18897-3 0  9991
2 21819  82.6054 257.3467 1484509 289.2854  55.3793 12.12180426507237
SL-8 R/B                
1 21876U 92008B   26155.70392507  .00000038  00000+0  24021-4 0  9998
2 21876  82.9271 203.0686 0033270 250.6914 233.0217 13.75973689721389
SL-8 R/B                
1 21938U 92020B   26155.76151395  .00000072  00000+0  58265-4 0  9990
2 21938  82.9302  89.0861 0030366  56.1907   6.8694 13.75547674713101
USA 81                  
1 21949U 92023A   26155.21171545  .00000222  00000+0  74851-4 0  9990
2 21949  85.0075  81.4954 0002733  96.8615 263.2888 14.32394529107178
COSMOS 2219             
1 22219U 92076A   26155.24561578 -.00000154  00000+0 -55898-4 0  9997
2 22219  71.0583 197.1268 0015990  65.3375 294.9411 14.14095941730614
SL-16 R/B               
1 22220U 92076B   26155.74762427 -.00000113  00000+0 -32487-4 0  9994
2 22220  71.0011   4.9868 0014309 315.0899 116.1019 14.16872818734163
COSMOS 2221             
1 22236U 92080A   26155.16747003  .00001683  00000+0  14572-3 0  9990
2 22236  82.5038 196.2380 0012582 260.5069  99.4731 14.96500298793723
SL-16 R/B               
1 22285U 92093B   26155.23927627  .00000058  00000+0  54134-4 0  9992
2 22285  71.0204 182.5726 0004661 204.9801 155.1097 14.15464769725400
COSMOS 2228             
1 22286U 92094A   26155.86022616  .00002548  00000+0  21556-3 0  9994
2 22286  82.5167 153.8502 0018137  14.4345 345.7392 14.97540199789103
SL-16 R/B               
1 22566U 93016B   26155.64201852 -.00000076  00000+0 -14447-4 0  9995
2 22566  71.0082  32.5573 0011013 201.9904 158.0748 14.15308590714479
COSMOS 2242             
1 22626U 93024A   26155.14559846  .00001937  00000+0  16629-3 0  9993
2 22626  82.5183 184.0195 0016617  20.4483 339.7401 14.96864609793321
SL-16 R/B               
1 22803U 93059B   26155.22079157 -.00000079  00000+0 -15395-4 0  9997
2 22803  70.9886 188.6478 0014883  76.5987 283.6795 14.17243330691793
ARIANE 40 R/B           
1 22830U 93061H   26155.63630591  .00000260  00000+0  11095-3 0  9992
2 22830  98.4821 222.7536 0011241  32.9909 327.1975 14.32902524706556
COSMOS 2278             
1 23087U 94023A   26155.72897141  .00000385  00000+0  22543-3 0  9990
2 23087  71.0540 352.9928 0010631 256.5016 103.4922 14.14390159657111
SL-16 R/B               
1 23088U 94023B   26155.66558370  .00000035  00000+0  42556-4 0  9991
2 23088  70.9998 248.2277 0003562 201.2318 158.8658 14.15018330658398
SL-16 R/B               
1 23343U 94074B   26155.09522668  .00000530  00000+0  77460-4 0  9991
2 23343  97.6996 182.3613 0005331 308.1191 117.6539 14.79490956700027
